[{"OBJECT_NAME":"STARLINK-30365","OBJECT_ID":"2023-131C","EPOCH":"2026-03-09T22:00:01.999584","MEAN_MOTION":15.11740629,"ECCENTRICITY":0.00010893,"INCLINATION":42.9996,"RA_OF_ASC_NODE":170.4181,"ARG_OF_PERICENTER":243.5279,"MEAN_ANOMALY":327.2322,"EPHEMERIS_TYPE":0,"CLASSIFICATION_TYPE":"U","NORAD_CAT_ID":57734,"ELEMENT_SET_NO":999,"REV_AT_EPOCH":543,"BSTAR":0.080452759,"MEAN_MOTION_DOT":0.01512441,"MEAN_MOTION_DDOT":0},{"OBJECT_NAME":"FENGYUN 1C DEB","OBJECT_ID":"1999-025DZE","EPOCH":"2026-02-28T06:22:54.338880","MEAN_MOTION":15.08907087,"ECCENTRICITY":0.00232464,"INCLINATION":99.4552,"RA_OF_ASC_NODE":173.2368,"ARG_OF_PERICENTER":218.3208,"MEAN_ANOMALY":141.6363,"EPHEMERIS_TYPE":0,"CLASSIFICATION_TYPE":"U","NORAD_CAT_ID":36684,"ELEMENT_SET_NO":999,"REV_AT_EPOCH":67065,"BSTAR":0.0055309563,"MEAN_MOTION_DOT":0.00088715,"MEAN_MOTION_DDOT":0}]
